STARLINK-35778          
1 66973U 25288Q   26003.91668981  .00066275  00000+0  15819-2 0  9996
2 66973  43.0008  34.3486 0001072 258.3237  59.0903 15.40664005  5390
STARLINK-35780          
1 66974U 25288R   26003.91668981  .00075946  00000+0  18107-2 0  9995
2 66974  43.0006  34.2888 0000815 260.1403  82.2345 15.40642972  5391
STARLINK-35777          
1 66975U 25288S   26003.91668981  .00081569  00000+0  19429-2 0  9992
2 66975  43.0002  34.2565 0001363 259.9250  94.8860 15.40640579  5397
STARLINK-35772          
1 66976U 25288T   26003.80431158  .00095264  00000+0  22586-2 0  9990
2 66976  43.0011  36.8983 0001894  52.9320 307.1709 15.40711160  5283
STARLINK-35770          
1 66977U 25288U   26001.58383638  .00106642  00000+0  17973-2 0  9990
2 66977  43.0009  47.6983 0001130 275.3451  84.7280 15.50604727  4967
STARLINK-35787          
1 66978U 25288V   26003.91668981  .00084158  00000+0  20035-2 0  9997
2 66978  43.0011  34.3774 0001749 267.6249  37.4196 15.40643805  5395
STARLINK-36107          
1 66979U 25288W   26003.45050098  .00094412  00000+0  15952-2 0  9997
2 66979  43.0008  36.7632 0001368 271.3283  88.7420 15.50590270  5250
STARLINK-36086          
1 66980U 25288X   26003.91668981  .00069525  00000+0  16597-2 0  9999
2 66980  43.0002  34.1952 0000890 239.2130 140.4791 15.40640858  5395
STARLINK-36142          
1 66981U 25288Y   26003.91668981  .00095810  00000+0  22773-2 0  9999
2 66981  43.0000  34.1347 0001347 270.6449 133.9445 15.40631754  5390
STARLINK-36113          
1 66982U 25288Z   26003.77154463  .00162390  00000+0  27128-2 0  9996
2 66982  43.0003  34.8710 0001235 281.7872  78.2850 15.50620482  5303
STARLINK-36145          
1 66983U 25288AA  26003.77086192  .00114121  00000+0  19212-2 0  9994
2 66983  42.9999  34.8660 0000290 300.0343  60.0488 15.50603601  5308
STARLINK-35591          
1 66984U 25288AB  26003.77120458  .00141194  00000+0  23666-2 0  9997
2 66984  43.0003  34.8678 0000439 281.5125  78.5686 15.50611845  5305
