CCSDS_OMM_VERS = 2.0
CREATION_DATE  = 
ORIGINATOR     = 

OBJECT_NAME    = STARLINK-35778
OBJECT_ID      = 2025-288Q
CENTER_NAME    = EARTH
REF_FRAME      = TEME
TIME_SYSTEM    = UTC
MEAN_ELEMENT_THEORY = SGP/SGP4

EPOCH          = 2026-01-03T22:00:01.999584
MEAN_MOTION    = 15.40664005
ECCENTRICITY   = .00010727
INCLINATION    = 43.0008
RA_OF_ASC_NODE = 34.3486
ARG_OF_PERICENTER = 258.3237
MEAN_ANOMALY   = 59.0903

EPHEMERIS_TYPE = 0
CLASSIFICATION_TYPE = U
NORAD_CAT_ID   = 66973
ELEMENT_SET_NO = 999
REV_AT_EPOCH   = 539
BSTAR          = .1581949E-2
MEAN_MOTION_DOT = .66275E-3
MEAN_MOTION_DDOT = 0

CCSDS_OMM_VERS = 2.0
CREATION_DATE  = 
ORIGINATOR     = 

OBJECT_NAME    = STARLINK-35780
OBJECT_ID      = 2025-288R
CENTER_NAME    = EARTH
REF_FRAME      = TEME
TIME_SYSTEM    = UTC
MEAN_ELEMENT_THEORY = SGP/SGP4

EPOCH          = 2026-01-03T22:00:01.999584
MEAN_MOTION    = 15.40642972
ECCENTRICITY   = .00008154
INCLINATION    = 43.0006
RA_OF_ASC_NODE = 34.2888
ARG_OF_PERICENTER = 260.1403
MEAN_ANOMALY   = 82.2345

EPHEMERIS_TYPE = 0
CLASSIFICATION_TYPE = U
NORAD_CAT_ID   = 66974
ELEMENT_SET_NO = 999
REV_AT_EPOCH   = 539
BSTAR          = .18107054E-2
MEAN_MOTION_DOT = .75946E-3
MEAN_MOTION_DDOT = 0

CCSDS_OMM_VERS = 2.0
CREATION_DATE  = 
ORIGINATOR     = 

OBJECT_NAME    = STARLINK-35777
OBJECT_ID      = 2025-288S
CENTER_NAME    = EARTH
REF_FRAME      = TEME
TIME_SYSTEM    = UTC
MEAN_ELEMENT_THEORY = SGP/SGP4

EPOCH          = 2026-01-03T22:00:01.999584
MEAN_MOTION    = 15.40640579
ECCENTRICITY   = .00013634
INCLINATION    = 43.0002
RA_OF_ASC_NODE = 34.2565
ARG_OF_PERICENTER = 259.9250
MEAN_ANOMALY   = 94.8860

EPHEMERIS_TYPE = 0
CLASSIFICATION_TYPE = U
NORAD_CAT_ID   = 66975
ELEMENT_SET_NO = 999
REV_AT_EPOCH   = 539
BSTAR          = .19429463E-2
MEAN_MOTION_DOT = .81569E-3
MEAN_MOTION_DDOT = 0

CCSDS_OMM_VERS = 2.0
CREATION_DATE  = 
ORIGINATOR     = 

OBJECT_NAME    = STARLINK-35772
OBJECT_ID      = 2025-288T
CENTER_NAME    = EARTH
REF_FRAME      = TEME
TIME_SYSTEM    = UTC
MEAN_ELEMENT_THEORY = SGP/SGP4

EPOCH          = 2026-01-03T19:18:12.520512
MEAN_MOTION    = 15.40711160
ECCENTRICITY   = .00018943
INCLINATION    = 43.0011
RA_OF_ASC_NODE = 36.8983
ARG_OF_PERICENTER = 52.9320
MEAN_ANOMALY   = 307.1709

EPHEMERIS_TYPE = 0
CLASSIFICATION_TYPE = U
NORAD_CAT_ID   = 66976
ELEMENT_SET_NO = 999
REV_AT_EPOCH   = 528
BSTAR          = .22585521E-2
MEAN_MOTION_DOT = .95264E-3
MEAN_MOTION_DDOT = 0

CCSDS_OMM_VERS = 2.0
CREATION_DATE  = 
ORIGINATOR     = 

OBJECT_NAME    = STARLINK-35770
OBJECT_ID      = 2025-288U
CENTER_NAME    = EARTH
REF_FRAME      = TEME
TIME_SYSTEM    = UTC
MEAN_ELEMENT_THEORY = SGP/SGP4

EPOCH          = 2026-01-01T14:00:43.463232
MEAN_MOTION    = 15.50604727
ECCENTRICITY   = .000113
INCLINATION    = 43.0009
RA_OF_ASC_NODE = 47.6983
ARG_OF_PERICENTER = 275.3451
MEAN_ANOMALY   = 84.7280

EPHEMERIS_TYPE = 0
CLASSIFICATION_TYPE = U
NORAD_CAT_ID   = 66977
ELEMENT_SET_NO = 999
REV_AT_EPOCH   = 496
BSTAR          = .17973E-2
MEAN_MOTION_DOT = .106642E-2
MEAN_MOTION_DDOT = 0

CCSDS_OMM_VERS = 2.0
CREATION_DATE  = 
ORIGINATOR     = 

OBJECT_NAME    = STARLINK-35787
OBJECT_ID      = 2025-288V
CENTER_NAME    = EARTH
REF_FRAME      = TEME
TIME_SYSTEM    = UTC
MEAN_ELEMENT_THEORY = SGP/SGP4

EPOCH          = 2026-01-03T22:00:01.999584
MEAN_MOTION    = 15.40643805
ECCENTRICITY   = .00017494
INCLINATION    = 43.0011
RA_OF_ASC_NODE = 34.3774
ARG_OF_PERICENTER = 267.6249
MEAN_ANOMALY   = 37.4196

EPHEMERIS_TYPE = 0
CLASSIFICATION_TYPE = U
NORAD_CAT_ID   = 66978
ELEMENT_SET_NO = 999
REV_AT_EPOCH   = 539
BSTAR          = .20034625E-2
MEAN_MOTION_DOT = .84158E-3
MEAN_MOTION_DDOT = 0

CCSDS_OMM_VERS = 2.0
CREATION_DATE  = 
ORIGINATOR     = 

OBJECT_NAME    = STARLINK-36107
OBJECT_ID      = 2025-288W
CENTER_NAME    = EARTH
REF_FRAME      = TEME
TIME_SYSTEM    = UTC
MEAN_ELEMENT_THEORY = SGP/SGP4

EPOCH          = 2026-01-03T10:48:43.284672
MEAN_MOTION    = 15.50590270
ECCENTRICITY   = .00013683
INCLINATION    = 43.0008
RA_OF_ASC_NODE = 36.7632
ARG_OF_PERICENTER = 271.3283
MEAN_ANOMALY   = 88.7420

EPHEMERIS_TYPE = 0
CLASSIFICATION_TYPE = U
NORAD_CAT_ID   = 66979
ELEMENT_SET_NO = 999
REV_AT_EPOCH   = 525
BSTAR          = .1595152E-2
MEAN_MOTION_DOT = .94412E-3
MEAN_MOTION_DDOT = 0

CCSDS_OMM_VERS = 2.0
CREATION_DATE  = 
ORIGINATOR     = 

OBJECT_NAME    = STARLINK-36086
OBJECT_ID      = 2025-288X
CENTER_NAME    = EARTH
REF_FRAME      = TEME
TIME_SYSTEM    = UTC
MEAN_ELEMENT_THEORY = SGP/SGP4

EPOCH          = 2026-01-03T22:00:01.999584
MEAN_MOTION    = 15.40640858
ECCENTRICITY   = .00008905
INCLINATION    = 43.0002
RA_OF_ASC_NODE = 34.1952
ARG_OF_PERICENTER = 239.2130
MEAN_ANOMALY   = 140.4791

EPHEMERIS_TYPE = 0
CLASSIFICATION_TYPE = U
NORAD_CAT_ID   = 66980
ELEMENT_SET_NO = 999
REV_AT_EPOCH   = 539
BSTAR          = .16597417E-2
MEAN_MOTION_DOT = .69525E-3
MEAN_MOTION_DDOT = 0

CCSDS_OMM_VERS = 2.0
CREATION_DATE  = 
ORIGINATOR     = 

OBJECT_NAME    = STARLINK-36142
OBJECT_ID      = 2025-288Y
CENTER_NAME    = EARTH
REF_FRAME      = TEME
TIME_SYSTEM    = UTC
MEAN_ELEMENT_THEORY = SGP/SGP4

EPOCH          = 2026-01-03T22:00:01.999584
MEAN_MOTION    = 15.40631754
ECCENTRICITY   = .00013473
INCLINATION    = 43.0000
RA_OF_ASC_NODE = 34.1347
ARG_OF_PERICENTER = 270.6449
MEAN_ANOMALY   = 133.9445

EPHEMERIS_TYPE = 0
CLASSIFICATION_TYPE = U
NORAD_CAT_ID   = 66981
ELEMENT_SET_NO = 999
REV_AT_EPOCH   = 539
BSTAR          = .22773068E-2
MEAN_MOTION_DOT = .9581E-3
MEAN_MOTION_DDOT = 0

CCSDS_OMM_VERS = 2.0
CREATION_DATE  = 
ORIGINATOR     = 

OBJECT_NAME    = STARLINK-36113
OBJECT_ID      = 2025-288Z
CENTER_NAME    = EARTH
REF_FRAME      = TEME
TIME_SYSTEM    = UTC
MEAN_ELEMENT_THEORY = SGP/SGP4

EPOCH          = 2026-01-03T18:31:01.456032
MEAN_MOTION    = 15.50620482
ECCENTRICITY   = .00012351
INCLINATION    = 43.0003
RA_OF_ASC_NODE = 34.8710
ARG_OF_PERICENTER = 281.7872
MEAN_ANOMALY   = 78.2850

EPHEMERIS_TYPE = 0
CLASSIFICATION_TYPE = U
NORAD_CAT_ID   = 66982
ELEMENT_SET_NO = 999
REV_AT_EPOCH   = 530
BSTAR          = .27128065E-2
MEAN_MOTION_DOT = .16239E-2
MEAN_MOTION_DDOT = 0

CCSDS_OMM_VERS = 2.0
CREATION_DATE  = 
ORIGINATOR     = 

OBJECT_NAME    = STARLINK-36145
OBJECT_ID      = 2025-288AA
CENTER_NAME    = EARTH
REF_FRAME      = TEME
TIME_SYSTEM    = UTC
MEAN_ELEMENT_THEORY = SGP/SGP4

EPOCH          = 2026-01-03T18:30:02.469888
MEAN_MOTION    = 15.50603601
ECCENTRICITY   = .00002908
INCLINATION    = 42.9999
RA_OF_ASC_NODE = 34.8660
ARG_OF_PERICENTER = 300.0343
MEAN_ANOMALY   = 60.0488

EPHEMERIS_TYPE = 0
CLASSIFICATION_TYPE = U
NORAD_CAT_ID   = 66983
ELEMENT_SET_NO = 999
REV_AT_EPOCH   = 530
BSTAR          = .19211624E-2
MEAN_MOTION_DOT = .114121E-2
MEAN_MOTION_DDOT = 0

CCSDS_OMM_VERS = 2.0
CREATION_DATE  = 
ORIGINATOR     = 

OBJECT_NAME    = STARLINK-35591
OBJECT_ID      = 2025-288AB
CENTER_NAME    = EARTH
REF_FRAME      = TEME
TIME_SYSTEM    = UTC
MEAN_ELEMENT_THEORY = SGP/SGP4

EPOCH          = 2026-01-03T18:30:32.075712
MEAN_MOTION    = 15.50611845
ECCENTRICITY   = .00004398
INCLINATION    = 43.0003
RA_OF_ASC_NODE = 34.8678
ARG_OF_PERICENTER = 281.5125
MEAN_ANOMALY   = 78.5686

EPHEMERIS_TYPE = 0
CLASSIFICATION_TYPE = U
NORAD_CAT_ID   = 66984
ELEMENT_SET_NO = 999
REV_AT_EPOCH   = 530
BSTAR          = .23666116E-2
MEAN_MOTION_DOT = .141194E-2
MEAN_MOTION_DDOT = 0

